[Satellite]
VERSION=1.1
NAME=STARLINK-1358
NICKNAME=STARLINK-1358
TLE1=1 45566U 20025AM  20141.83334491  .00045778  00000-0  50229-3 0  9990
TLE2=2 45566  52.9988 260.9205 0001195  61.1403 230.2703 15.62786996  5117
STATUS=0
